H1 CPF 01  gfz 2022 11 26 01  8301 tandemx   
H2 1003001  6202 36605    2022 11 26 00 59 42 2022 12 01 00 00 42   120 1 1  0 0 0
H9
10 0 59913  55422.000000  0   -3384820.532  -3598518.608   4790995.654
10 0 59913  55542.000000  0   -3936805.052  -3874866.337   4106682.463
10 0 59913  55662.000000  0   -4424139.682  -4074386.916   3350073.956
10 0 59913  55782.000000  0   -4836923.649  -4194793.968   2534475.080
10 0 59913  55902.000000  0   -5166540.255  -4235354.608   1674242.122
10 0 59913  56022.000000  0   -5405840.793  -4196881.884    784525.164
10 0 59913  56142.000000  0   -5549300.783  -4081695.059   -119005.417
10 0 59913  56262.000000  0   -5593144.780  -3893549.191  -1020443.413
10 0 59913  56382.000000  0   -5535436.072  -3637535.264  -1903936.797
10 0 59913  56502.000000  0   -5376127.395  -3319952.453  -2753975.226
10 0 59913  56622.000000  0   -5117073.472  -2948158.260  -3555667.387
10 0 59913  56742.000000  0   -4762006.021  -2530399.970  -4295003.752
10 0 59913  56862.000000  0   -4316472.397  -2075632.084  -4959099.885
10 0 59913  56982.000000  0   -3787739.396  -1593324.439  -5536415.909
10 0 59913  57102.000000  0   -3184665.611  -1093265.026  -6016948.778
10 0 59913  57222.000000  0   -2517545.824   -585362.249  -6392394.752
10 0 59913  57342.000000  0   -1797930.485    -79451.029  -6656281.458
10 0 59913  57462.000000  0   -1038423.814    414893.505  -6804067.440
10 0 59913  57582.000000  0    -252466.237    888531.893  -6833211.180
10 0 59913  57702.000000  0     545897.954   1332925.035  -6743209.713
10 0 59913  57822.000000  0    1342264.282   1740283.295  -6535607.897
10 0 59913  57942.000000  0    2122122.945   2103701.151  -6213976.107
10 0 59913  58062.000000  0    2871118.304   2417273.288  -5783855.303
10 0 59913  58182.000000  0    3575309.745   2676190.638  -5252670.152
10 0 59913  58302.000000  0    4221429.801   2876815.355  -4629613.002
10 0 59913  58422.000000  0    4797137.754   3016733.994  -3925496.399
10 0 59913  58542.000000  0    5291261.153   3094786.066  -3152574.224
10 0 59913  58662.000000  0    5694019.563   3111068.061  -2324335.878
10 0 59913  58782.000000  0    5997228.131   3066913.021  -1455274.556
10 0 59913  58902.000000  0    6194472.340   2964842.976   -560632.447
10 0 59913  59022.000000  0    6281250.458   2808497.187    343870.521
10 0 59913  59142.000000  0    6255078.564   2602535.383   1242320.090
10 0 59913  59262.000000  0    6115555.847   2352521.227   2118894.800
10 0 59913  59382.000000  0    5864388.997   2064788.075   2958153.989
10 0 59913  59502.000000  0    5505372.576   1746288.530   3745318.407
10 0 59913  59622.000000  0    5044326.981   1404433.538   4466536.943
10 0 59913  59742.000000  0    4488995.669   1046924.481   5109132.452
10 0 59913  59862.000000  0    3848907.538    681583.310   5661824.589
10 0 59913  59982.000000  0    3135203.312    316183.306   6114926.249
10 0 59913  60102.000000  0    2360432.826    -41713.543   6460506.534
10 0 59913  60222.000000  0    1538329.997   -384910.076   6692523.359
10 0 59913  60342.000000  0     683566.188   -706716.939   6806924.770
10 0 59913  60462.000000  0    -188514.278  -1001081.965   6801715.073
10 0 59913  60582.000000  0   -1062169.502  -1262703.281   6676986.554
10 0 59913  60702.000000  0   -1921543.256  -1487124.993   6434916.936
10 0 59913  60822.000000  0   -2750950.793  -1670812.548   6079732.827
10 0 59913  60942.000000  0   -3535164.328  -1811207.959   5617642.834
10 0 59913  61062.000000  0   -4259697.287  -1906765.536   5056736.369
10 0 59913  61182.000000  0   -4911077.660  -1956965.987   4406847.036
10 0 59913  61302.000000  0   -5477105.782  -1962307.759   3679383.870
10 0 59913  61422.000000  0   -5947090.321  -1924275.576   2887133.428
10 0 59913  61542.000000  0   -6312058.932  -1845288.123   2044036.548
10 0 59913  61662.000000  0   -6564940.175  -1728626.048   1164940.660
10 0 59913  61782.000000  0   -6700707.355  -1578340.214    265330.833
10 0 59913  61902.000000  0   -6716481.756  -1399142.894   -638950.936
10 0 59913  62022.000000  0   -6611592.576  -1196284.908  -1531994.148
10 0 59913  62142.000000  0   -6387591.761   -975422.296  -2398108.162
10 0 59913  62262.000000  0   -6048224.706   -742476.537  -3222104.220
10 0 59913  62382.000000  0   -5599357.467   -503491.076  -3989566.169
10 0 59913  62502.000000  0   -5048862.958   -264486.959  -4687103.125
10 0 59913  62622.000000  0   -4406469.955    -31322.500  -5302579.407
10 0 59913  62742.000000  0   -3683579.229    190439.600  -5825318.988
10 0 59913  62862.000000  0   -2893050.834    395655.338  -6246280.024
10 0 59913  62982.000000  0   -2048969.950    579710.085  -6558198.590
10 0 59913  63102.000000  0   -1166394.615    738614.563  -6755703.190
10 0 59913  63222.000000  0    -261088.961    869085.830  -6835397.029
10 0 59913  63342.000000  0     650751.959    968611.442  -6795908.639
10 0 59913  63462.000000  0    1552783.606   1035495.432  -6637914.992
10 0 59913  63582.000000  0    2428799.373   1068886.977  -6364132.511
10 0 59913  63702.000000  0    3263016.409   1068790.558  -5979275.132
10 0 59913  63822.000000  0    4040356.032   1036057.148  -5489980.389
10 0 59913  63942.000000  0    4746715.103    972356.551  -4904706.356
10 0 59913  64062.000000  0    5369225.941    880131.809  -4233597.270
10 0 59913  64182.000000  0    5896498.030    762535.932  -3488317.690
10 0 59913  64302.000000  0    6318836.142    623351.638  -2681858.251
10 0 59913  64422.000000  0    6628431.101    466896.253  -1828315.120
10 0 59913  64542.000000  0    6819517.813    297913.057   -942644.306
10 0 59913  64662.000000  0    6888493.251    121451.672    -40396.396
10 0 59913  64782.000000  0    6833993.154    -57258.807    862561.509
10 0 59913  64902.000000  0    6656925.103   -232942.242   1750332.701
10 0 59913  65022.000000  0    6360455.436   -400409.075   2607280.090
10 0 59913  65142.000000  0    5949949.413   -554687.938   3418310.975
10 0 59913  65262.000000  0    5432866.770   -691151.561   4169148.916
10 0 59913  65382.000000  0    4818618.866   -805633.653   4846589.150
10 0 59913  65502.000000  0    4118386.689   -894535.258   5438732.825
10 0 59913  65622.000000  0    3344906.614   -954915.384   5935193.617
10 0 59913  65742.000000  0    2512230.333   -984566.365   6327275.637
10 0 59913  65862.000000  0    1635463.442   -982071.926   6608119.959
10 0 59913  65982.000000  0     730487.110   -946847.121   6772819.925
10 0 59913  66102.000000  0    -186332.685   -879158.577   6818501.085
10 0 59913  66222.000000  0   -1098441.070   -780125.515   6744366.861
10 0 59913  66342.000000  0   -1989391.829   -651701.411   6551711.052
10 0 59913  66462.000000  0   -2843142.357   -496636.051   6243896.551
10 0 59913  66582.000000  0   -3644342.326   -318418.950   5826301.549
10 0 59913  66702.000000  0   -4378612.806   -121205.037   5306232.020
10 0 59913  66822.000000  0   -5032810.246     90276.240   4692799.933
10 0 59913  66942.000000  0   -5595269.443    310826.388   3996768.443
10 0 59913  67062.000000  0   -6056020.398    534896.592   3230366.120
10 0 59913  67182.000000  0   -6406974.630    756716.943   2407073.996
10 0 59913  67302.000000  0   -6642077.097    970433.444   1541386.770
10 0 59913  67422.000000  0   -6757419.089   1170248.828    648553.093
10 0 59913  67542.000000  0   -6751308.760   1350564.307   -255700.837
10 0 59913  67662.000000  0   -6624295.775   1506118.348  -1155457.689
10 0 59913  67782.000000  0   -6379150.414   1632118.176  -2034897.569
10 0 59913  67902.000000  0   -6020799.749   1724362.271  -2878583.425
10 0 59913  68022.000000  0   -5556220.055   1779350.051  -3671738.891
10 0 59913  68142.000000  0   -4994288.722   1794374.659  -4400509.358
10 0 59913  68262.000000  0   -4345602.124   1767598.253  -5052201.460
10 0 59913  68382.000000  0   -3622264.257   1698108.104  -5615497.519
10 0 59913  68502.000000  0   -2837652.704   1585952.800  -6080642.365
10 0 59913  68622.000000  0   -2006166.363   1432157.721  -6439601.993
10 0 59913  68742.000000  0   -1142958.314   1238720.389  -6686190.770
10 0 59913  68862.000000  0    -263661.675   1008585.235  -6816166.108
10 0 59913  68982.000000  0     615887.369    745599.315  -6827292.645
10 0 59913  69102.000000  0    1479926.901    454449.481  -6719378.421
10 0 59913  69222.000000  0    2313046.516    140580.536  -6494278.503
10 0 59913  69342.000000  0    3100455.987   -189903.381  -6155866.255
10 0 59913  69462.000000  0    3828244.677   -530353.186  -5709973.534
10 0 59913  69582.000000  0    4483625.168   -873703.598  -5164299.512
10 0 59913  69702.000000  0    5055161.187  -1212614.551  -4528290.523
10 0 59913  69822.000000  0    5532974.453  -1539623.175  -3812987.471
10 0 59913  69942.000000  0    5908924.989  -1847302.705  -3030843.457
10 0 59913  70062.000000  0    6176761.278  -2128425.706  -2195513.409
10 0 59913  70182.000000  0    6332235.795  -2376127.860  -1321618.351
10 0 59913  70302.000000  0    6373182.492  -2584067.743   -424488.810
10 0 59913  70422.000000  0    6299554.117  -2746579.068    480108.244
10 0 59913  70542.000000  0    6113417.414  -2858810.980   1376253.450
10 0 59913  70662.000000  0    5818905.623  -2916852.689   2248164.749
10 0 59913  70782.000000  0    5422127.703  -2917839.291   3080484.269
10 0 59913  70902.000000  0    4931038.609  -2860035.353   3858556.927
10 0 59913  71022.000000  0    4355273.411  -2742893.746   4568692.738
10 0 59913  71142.000000  0    3705952.450  -2567090.864   5198410.313
10 0 59913  71262.000000  0    2995457.563  -2334536.097   5736657.162
10 0 59913  71382.000000  0    2237187.965  -2048354.357   6173999.752
10 0 59913  71502.000000  0    1445302.019  -1712844.198   6502783.647
10 0 59913  71622.000000  0     634448.926  -1333412.125   6717261.651
10 0 59913  71742.000000  0    -180504.504   -916483.922   6813688.277
10 0 59913  71862.000000  0    -984746.299   -469394.668   6790380.284
99
